{
    "links": {
        "self": "http://www.neowsapp.com/rest/v1/neo/3514956?api_key=iIulBulltgU6a56xZRHN4H3l9WmuAYTsLGpBGhQ2"
    },
    "id": "3514956",
    "neo_reference_id": "3514956",
    "name": "(2010 GT6)",
    "designation": "2010 GT6",
    "nasa_jpl_url": "http://ssd.jpl.nasa.gov/sbdb.cgi?sstr=3514956",
    "absolute_magnitude_h": 21.6,
    "estimated_diameter": {
        "kilometers": {
            "estimated_diameter_min": 0.1272198785,
            "estimated_diameter_max": 0.2844722965
        },
        "meters": {
            "estimated_diameter_min": 127.2198785394,
            "estimated_diameter_max": 284.4722965033
        },
        "miles": {
            "estimated_diameter_min": 0.0790507431,
            "estimated_diameter_max": 0.1767628354
        },
        "feet": {
            "estimated_diameter_min": 417.3880663071,
            "estimated_diameter_max": 933.3080892598
        }
    },
    "is_potentially_hazardous_asteroid": false,
    "close_approach_data": [
        {
            "close_approach_date": "2010-05-02",
            "close_approach_date_full": "2010-May-02 06:30",
            "epoch_date_close_approach": 1272781800000,
            "relative_velocity": {
                "kilometers_per_second": "15.7580604486",
                "kilometers_per_hour": "56729.0176150964",
                "miles_per_hour": "35249.2054175581"
            },
            "miss_distance": {
                "astronomical": "0.135629762",
                "lunar": "52.759977418",
                "kilometers": "20289923.50380694",
                "miles": "12607573.844298172"
            },
            "orbiting_body": "Earth"
        },
        {
            "close_approach_date": "2061-04-10",
            "close_approach_date_full": "2061-Apr-10 15:34",
            "epoch_date_close_approach": 2880372840000,
            "relative_velocity": {
                "kilometers_per_second": "29.1180499003",
                "kilometers_per_hour": "104824.9796411804",
                "miles_per_hour": "65134.1658220435"
            },
            "miss_distance": {
                "astronomical": "0.3609721337",
                "lunar": "140.4181600093",
                "kilometers": "54000662.330875219",
                "miles": "33554455.6316232622"
            },
            "orbiting_body": "Earth"
        }
    ],
    "orbital_data": {
        "orbit_id": "15",
        "orbit_determination_date": "2017-04-06 08:57:56",
        "first_observation_date": "2010-04-05",
        "last_observation_date": "2010-04-22",
        "data_arc_in_days": 17,
        "observations_used": 76,
        "orbit_uncertainty": "8",
        "minimum_orbit_intersection": ".0855888",
        "jupiter_tisserand_invariant": "4.344",
        "epoch_osculation": "2455297.5",
        "eccentricity": ".5897428131997612",
        "semi_major_axis": "1.48952196467819",
        "inclination": "10.01613867517396",
        "ascending_node_longitude": "8.319416605791876",
        "orbital_period": "664.0010933915712",
        "perihelion_distance": ".611087090906039",
        "perihelion_argument": "303.2845762183053",
        "aphelion_distance": "2.367956838450341",
        "perihelion_time": "2455373.509309721701",
        "mean_anomaly": "318.7902011425216",
        "mean_motion": ".5421677819251763",
        "equinox": "J2000",
        "orbit_class": {
            "orbit_class_type": "APO",
            "orbit_class_description": "Near-Earth asteroid orbits which cross the Earth’s orbit similar to that of 1862 Apollo",
            "orbit_class_range": "a (semi-major axis) > 1.0 AU; q (perihelion) < 1.017 AU"
        }
    },
    "is_sentry_object": false
}